{"type": "FeatureCollection", "features": [ {"type": "Feature", "properties": {"norad_id": 43058, "name": "GSAT0218 (GALILEO 22)", "group": "galileo", "lat": 54.30656468623059, "lon": -57.41348243408426, "alt_km": 23221.80550425069, "timestamp": "2025-12-10T09:57:44.962375+00:00", "meta": {"OBJECT_NAME": "GSAT0218 (GALILEO 22)", "OBJECT_ID": "2017-079D", "EPOCH": "2025-12-09T02:36:28.325952", "MEAN_MOTION": 1.70473942, "ECCENTRICITY": 0.00028125, "INCLINATION": 55.1298, "RA_OF_ASC_NODE": 226.7335, "ARG_OF_PERICENTER": 306.3632, "MEAN_ANOMALY": 53.6978, "EPHEMERIS_TYPE": 0, "CLASSIFICATION_TYPE": "U", "NORAD_CAT_ID": 43058, "ELEMENT_SET_NO": 999, "REV_AT_EPOCH": 4977, "BSTAR": 0, "MEAN_MOTION_DOT": 1.2e-07, "MEAN_MOTION_DDOT": 0}, "tle": {"line1": "1 43058U 17079D   25343.10866118  .00000012  00000+0  00000+0 0  9993", "line2": "2 43058  55.1298 226.7335 0002812 306.3632  53.6978  1.70473942 49778"}}, "geometry": {"type": "Point", "coordinates": [-57.41348243408426, 54.30656468623059]}}, {"type": "Feature", "properties": {"norad_id": 43564, "name": "GSAT0221 (GALILEO 25)", "group": "galileo", "lat": 31.560547377213023, "lon": 143.56844335969768, "alt_km": 23233.53643975926, "timestamp": "2025-12-10T09:57:44.962387+00:00", "meta": {"OBJECT_NAME": "GSAT0221 (GALILEO 25)", "OBJECT_ID": "2018-060A", "EPOCH": "2025-12-09T00:16:12.119232", "MEAN_MOTION": 1.70475733, "ECCENTRICITY": 0.00067013, "INCLINATION": 57.2286, "RA_OF_ASC_NODE": 346.9182, "ARG_OF_PERICENTER": 282.1379, "MEAN_ANOMALY": 77.8037, "EPHEMERIS_TYPE": 0, "CLASSIFICATION_TYPE": "U", "NORAD_CAT_ID": 43564, "ELEMENT_SET_NO": 999, "REV_AT_EPOCH": 4592, "BSTAR": 0, "MEAN_MOTION_DOT": -8.7e-07, "MEAN_MOTION_DDOT": 0}, "tle": {"line1": "1 43564U 18060A   25343.01125138 -.00000087  00000+0  00000+0 0  9999", "line2": "2 43564  57.2286 346.9182 0006701 282.1379  77.8037  1.70475733 45922"}}, "geometry": {"type": "Point", "coordinates": [143.56844335969768, 31.560547377213023]}}, {"type": "Feature", "properties": {"norad_id": 43565, "name": "GSAT0222 (GALILEO 26)", "group": "galileo", "lat": 5.848863584480287, "lon": -9.33522383326865, "alt_km": 23226.055235847827, "timestamp": "2025-12-10T09:57:44.962399+00:00", "meta": {"OBJECT_NAME": "GSAT0222 (GALILEO 26)", "OBJECT_ID": "2018-060B", "EPOCH": "2025-12-09T05:32:02.497344", "MEAN_MOTION": 1.7047545, "ECCENTRICITY": 0.00061659, "INCLINATION": 57.2321, "RA_OF_ASC_NODE": 346.9153, "ARG_OF_PERICENTER": 262.6798, "MEAN_ANOMALY": 97.2666, "EPHEMERIS_TYPE": 0, "CLASSIFICATION_TYPE": "U", "NORAD_CAT_ID": 43565, "ELEMENT_SET_NO": 999, "REV_AT_EPOCH": 4597, "BSTAR": 0, "MEAN_MOTION_DOT": -8.7e-07, "MEAN_MOTION_DDOT": 0}, "tle": {"line1": "1 43565U 18060B   25343.23058446 -.00000087  00000+0  00000+0 0  9991", "line2": "2 43565  57.2321 346.9153 0006165 262.6798  97.2666  1.70475450 45978"}}, "geometry": {"type": "Point", "coordinates": [-9.33522383326865, 5.848863584480287]}}, {"type": "Feature", "properties": {"norad_id": 43566, "name": "GSAT0219 (GALILEO 23)", "group": "galileo", "lat": -40.90641825497586, "lon": -159.19235195732335, "alt_km": 23216.981244395887, "timestamp": "2025-12-10T09:57:44.962410+00:00", "meta": {"OBJECT_NAME": "GSAT0219 (GALILEO 23)", "OBJECT_ID": "2018-060C", "EPOCH": "2025-12-07T16:36:27.181728", "MEAN_MOTION": 1.7047564, "ECCENTRICITY": 0.00057893, "INCLINATION": 57.2316, "RA_OF_ASC_NODE": 346.9585, "ARG_OF_PERICENTER": 285.9629, "MEAN_ANOMALY": 73.992, "EPHEMERIS_TYPE": 0, "CLASSIFICATION_TYPE": "U", "NORAD_CAT_ID": 43566, "ELEMENT_SET_NO": 999, "REV_AT_EPOCH": 4592, "BSTAR": 0, "MEAN_MOTION_DOT": -8.4e-07, "MEAN_MOTION_DDOT": 0}, "tle": {"line1": "1 43566U 18060C   25341.69198127 -.00000084  00000+0  00000+0 0  9998", "line2": "2 43566  57.2316 346.9585 0005789 285.9629  73.9920  1.70475640 45924"}}, "geometry": {"type": "Point", "coordinates": [-159.19235195732335, -40.90641825497586]}}, {"type": "Feature", "properties": {"norad_id": 43567, "name": "GSAT0220 (GALILEO 24)", "group": "galileo", "lat": 56.78756612197225, "lon": 87.17721899352651, "alt_km": 23233.715226612654, "timestamp": "2025-12-10T09:57:44.962425+00:00", "meta": {"OBJECT_NAME": "GSAT0220 (GALILEO 24)", "OBJECT_ID": "2018-060D", "EPOCH": "2025-12-07T07:49:54.342624", "MEAN_MOTION": 1.70475454, "ECCENTRICITY": 0.00061757, "INCLINATION": 57.2312, "RA_OF_ASC_NODE": 346.9681, "ARG_OF_PERICENTER": 282.9528, "MEAN_ANOMALY": 76.9979, "EPHEMERIS_TYPE": 0, "CLASSIFICATION_TYPE": "U", "NORAD_CAT_ID": 43567, "ELEMENT_SET_NO": 999, "REV_AT_EPOCH": 4590, "BSTAR": 0, "MEAN_MOTION_DOT": -8.3e-07, "MEAN_MOTION_DDOT": 0}, "tle": {"line1": "1 43567U 18060D   25341.32632341 -.00000083  00000+0  00000+0 0  9999", "line2": "2 43567  57.2312 346.9681 0006175 282.9528  76.9979  1.70475454 45901"}}, "geometry": {"type": "Point", "coordinates": [87.17721899352651, 56.78756612197225]}}, {"type": "Feature", "properties": {"norad_id": 49809, "name": "GSAT0223 (GALILEO 27)", "group": "galileo", "lat": -5.319801146678381, "lon": 170.21320486935488, "alt_km": 23217.22731157414, "timestamp": "2025-12-10T09:57:44.962437+00:00", "meta": {"OBJECT_NAME": "GSAT0223 (GALILEO 27)", "OBJECT_ID": "2021-116A", "EPOCH": "2025-12-09T19:43:21.531936", "MEAN_MOTION": 1.7047574, "ECCENTRICITY": 0.000464, "INCLINATION": 57.2199, "RA_OF_ASC_NODE": 346.791, "ARG_OF_PERICENTER": 251.5243, "MEAN_ANOMALY": 290.6872, "EPHEMERIS_TYPE": 0, "CLASSIFICATION_TYPE": "U", "NORAD_CAT_ID": 49809, "ELEMENT_SET_NO": 999, "REV_AT_EPOCH": 2495, "BSTAR": 0, "MEAN_MOTION_DOT": -8.7e-07, "MEAN_MOTION_DDOT": 0}, "tle": {"line1": "1 49809U 21116A   25343.82177699 -.00000087  00000+0  00000+0 0  9991", "line2": "2 49809  57.2199 346.7910 0004640 251.5243 290.6872  1.70475740 24950"}}, "geometry": {"type": "Point", "coordinates": [170.21320486935488, -5.319801146678381]}}, {"type": "Feature", "properties": {"norad_id": 49810, "name": "GSAT0224 (GALILEO 28)", "group": "galileo", "lat": -47.343067583988955, "lon": -57.604942126217466, "alt_km": 23218.886354415245, "timestamp": "2025-12-10T09:57:44.962448+00:00", "meta": {"OBJECT_NAME": "GSAT0224 (GALILEO 28)", "OBJECT_ID": "2021-116B", "EPOCH": "2025-12-07T13:56:35.698272", "MEAN_MOTION": 1.7047563, "ECCENTRICITY": 0.00040182, "INCLINATION": 57.2213, "RA_OF_ASC_NODE": 346.8506, "ARG_OF_PERICENTER": 254.5241, "MEAN_ANOMALY": 105.0474, "EPHEMERIS_TYPE": 0, "CLASSIFICATION_TYPE": "U", "NORAD_CAT_ID": 49810, "ELEMENT_SET_NO": 999, "REV_AT_EPOCH": 2493, "BSTAR": 0, "MEAN_MOTION_DOT": -8.4e-07, "MEAN_MOTION_DDOT": 0}, "tle": {"line1": "1 49810U 21116B   25341.58096873 -.00000084  00000+0  00000+0 0  9995", "line2": "2 49810  57.2213 346.8506 0004018 254.5241 105.0474  1.70475630 24934"}}, "geometry": {"type": "Point", "coordinates": [-57.604942126217466, -47.343067583988955]}}, {"type": "Feature", "properties": {"norad_id": 59598, "name": "GSAT0225 (GALILEO 29)", "group": "galileo", "lat": -49.67408947890246, "lon": 50.79861723808793, "alt_km": 23230.48205002756, "timestamp": "2025-12-10T09:57:44.962460+00:00", "meta": {"OBJECT_NAME": "GSAT0225 (GALILEO 29)", "OBJECT_ID": "2024-079A", "EPOCH": "2025-12-07T13:01:48.128160", "MEAN_MOTION": 1.70474573, "ECCENTRICITY": 0.0002046, "INCLINATION": 54.9986, "RA_OF_ASC_NODE": 106.4402, "ARG_OF_PERICENTER": 173.6326, "MEAN_ANOMALY": 155.0404, "EPHEMERIS_TYPE": 0, "CLASSIFICATION_TYPE": "U", "NORAD_CAT_ID": 59598, "ELEMENT_SET_NO": 999, "REV_AT_EPOCH": 1004, "BSTAR": 0, "MEAN_MOTION_DOT": 7e-08, "MEAN_MOTION_DDOT": 0}, "tle": {"line1": "1 59598U 24079A   25341.54291815  .00000007  00000+0  00000+0 0  9993", "line2": "2 59598  54.9986 106.4402 0002046 173.6326 155.0404  1.70474573 10048"}}, "geometry": {"type": "Point", "coordinates": [50.79861723808793, -49.67408947890246]}}, {"type": "Feature", "properties": {"norad_id": 59600, "name": "GSAT0227 (GALILEO 30)", "group": "galileo", "lat": 0.8334960399743702, "lon": -74.23457859776178, "alt_km": 23218.126645104578, "timestamp": "2025-12-10T09:57:44.962472+00:00", "meta": {"OBJECT_NAME": "GSAT0227 (GALILEO 30)", "OBJECT_ID": "2024-079C", "EPOCH": "2025-12-08T22:48:42.234912", "MEAN_MOTION": 1.70474719, "ECCENTRICITY": 0.0003262, "INCLINATION": 54.9946, "RA_OF_ASC_NODE": 106.4003, "ARG_OF_PERICENTER": 114.182, "MEAN_ANOMALY": 245.816, "EPHEMERIS_TYPE": 0, "CLASSIFICATION_TYPE": "U", "NORAD_CAT_ID": 59600, "ELEMENT_SET_NO": 999, "REV_AT_EPOCH": 1012, "BSTAR": 0, "MEAN_MOTION_DOT": 9e-08, "MEAN_MOTION_DDOT": 0}, "tle": {"line1": "1 59600U 24079C   25342.95048883  .00000009  00000+0  00000+0 0  9990", "line2": "2 59600  54.9946 106.4003 0003262 114.1820 245.8160  1.70474719 10123"}}, "geometry": {"type": "Point", "coordinates": [-74.23457859776178, 0.8334960399743702]}}, {"type": "Feature", "properties": {"norad_id": 61182, "name": "GSAT0232 (GALILEO 32)", "group": "galileo", "lat": 10.930550991103123, "lon": -125.79665049351814, "alt_km": 23226.775064942733, "timestamp": "2025-12-10T09:57:44.962483+00:00", "meta": {"OBJECT_NAME": "GSAT0232 (GALILEO 32)", "OBJECT_ID": "2024-167A", "EPOCH": "2025-12-08T22:32:43.317600", "MEAN_MOTION": 1.70473335, "ECCENTRICITY": 0.0002034, "INCLINATION": 55.2421, "RA_OF_ASC_NODE": 226.5351, "ARG_OF_PERICENTER": 212.6306, "MEAN_ANOMALY": 335.1093, "EPHEMERIS_TYPE": 0, "CLASSIFICATION_TYPE": "U", "NORAD_CAT_ID": 61182, "ELEMENT_SET_NO": 999, "REV_AT_EPOCH": 763, "BSTAR": 0, "MEAN_MOTION_DOT": 1.4e-07, "MEAN_MOTION_DDOT": 0}, "tle": {"line1": "1 61182U 24167A   25342.93939025  .00000014  00000+0  00000+0 0  9997", "line2": "2 61182  55.2421 226.5351 0002034 212.6306 335.1093  1.70473335  7635"}}, "geometry": {"type": "Point", "coordinates": [-125.79665049351814, 10.930550991103123]}}]}